COSMOS 2228             
1 22286U 92094A   25332.58358262  .00002140  00000+0  18512-3 0  9994
2 22286  82.5177 334.0803 0016343 283.8580  76.0823 14.96627024760936
SL-16 R/B               
1 22566U 93016B   25332.64020803 -.00000061  00000+0 -68960-5 0  9990
2 22566  71.0092  67.4150 0008057 124.3058 235.8828 14.15289136687870
COSMOS 2242             
1 22626U 93024A   25332.59011108  .00002063  00000+0  18133-3 0  9995
2 22626  82.5201   3.3691 0014874 286.8458  73.1132 14.96017242765275
SL-16 R/B               
1 22803U 93059B   25332.40395554 -.00000013  00000+0  17560-4 0  9998
2 22803  70.9895 224.7152 0017094 356.8780   3.2234 14.17207904665181
ARIANE 40 R/B           
1 22830U 93061H   25332.44199715  .00000262  00000+0  11200-3 0  9995
2 22830  98.5094  38.2310 0010078 219.0982 140.9475 14.32786869679608
COSMOS 2278             
1 23087U 94023A   25332.60306322  .00000072  00000+0  62198-4 0  9993
2 23087  71.0557  26.5866 0009159 199.5021 160.5753 14.14350057630513
SL-16 R/B               
1 23088U 94023B   25332.62501084  .00000304  00000+0  18160-3 0  9995
2 23088  70.9996 283.1265 0001089  98.3942 261.7304 14.14993989631799
SL-16 R/B               
1 23343U 94074B   25332.61515818  .00000528  00000+0  77679-4 0  9993
2 23343  97.7219   2.4803 0006505 177.9420 295.5171 14.79264342672305
SL-16 R/B               
1 23405U 94077B   25332.64599549 -.00000244  00000+0 -10023-3 0  9997
2 23405  70.9815 205.0627 0004555 295.3761  64.6890 14.15546312601934
ARIANE 40+ R/B          
1 23561U 95021B   25332.64031972  .00000345  00000+0  12432-3 0  9997
2 23561  98.4669  40.3984 0007890  86.9062  37.3126 14.39678464604705
SL-16 R/B               
1 23705U 95058B   25332.57732967  .00000141  00000+0  96420-4 0  9995
2 23705  71.0224  32.5389 0014911 273.1063  86.8354 14.15475305553544
SL-16 R/B               
1 24298U 96051B   25332.60746964 -.00000031  00000+0  99537-5 0  9995
2 24298  70.7607  29.1977 0018974 278.8770  81.0201 14.12394348507370
