CCSDS_OMM_VERS = 2.0
CREATION_DATE  = 
ORIGINATOR     = 

OBJECT_NAME    = COSMOS 2228
OBJECT_ID      = 1992-094A
CENTER_NAME    = EARTH
REF_FRAME      = TEME
TIME_SYSTEM    = UTC
MEAN_ELEMENT_THEORY = SGP/SGP4

EPOCH          = 2025-11-28T14:00:21.538368
MEAN_MOTION    = 14.96627024
ECCENTRICITY   = .00163434
INCLINATION    = 82.5177
RA_OF_ASC_NODE = 334.0803
ARG_OF_PERICENTER = 283.8580
MEAN_ANOMALY   = 76.0823

EPHEMERIS_TYPE = 0
CLASSIFICATION_TYPE = U
NORAD_CAT_ID   = 22286
ELEMENT_SET_NO = 999
REV_AT_EPOCH   = 76093
BSTAR          = .18511724E-3
MEAN_MOTION_DOT = .214E-4
MEAN_MOTION_DDOT = 0

CCSDS_OMM_VERS = 2.0
CREATION_DATE  = 
ORIGINATOR     = 

OBJECT_NAME    = SL-16 R/B
OBJECT_ID      = 1993-016B
CENTER_NAME    = EARTH
REF_FRAME      = TEME
TIME_SYSTEM    = UTC
MEAN_ELEMENT_THEORY = SGP/SGP4

EPOCH          = 2025-11-28T15:21:53.973792
MEAN_MOTION    = 14.15289136
ECCENTRICITY   = .00080575
INCLINATION    = 71.0092
RA_OF_ASC_NODE = 67.4150
ARG_OF_PERICENTER = 124.3058
MEAN_ANOMALY   = 235.8828

EPHEMERIS_TYPE = 0
CLASSIFICATION_TYPE = U
NORAD_CAT_ID   = 22566
ELEMENT_SET_NO = 999
REV_AT_EPOCH   = 68787
BSTAR          = -.6896002E-5
MEAN_MOTION_DOT = -.61E-6
MEAN_MOTION_DDOT = 0

CCSDS_OMM_VERS = 2.0
CREATION_DATE  = 
ORIGINATOR     = 

OBJECT_NAME    = COSMOS 2242
OBJECT_ID      = 1993-024A
CENTER_NAME    = EARTH
REF_FRAME      = TEME
TIME_SYSTEM    = UTC
MEAN_ELEMENT_THEORY = SGP/SGP4

EPOCH          = 2025-11-28T14:09:45.597312
MEAN_MOTION    = 14.96017242
ECCENTRICITY   = .0014874
INCLINATION    = 82.5201
RA_OF_ASC_NODE = 3.3691
ARG_OF_PERICENTER = 286.8458
MEAN_ANOMALY   = 73.1132

EPHEMERIS_TYPE = 0
CLASSIFICATION_TYPE = U
NORAD_CAT_ID   = 22626
ELEMENT_SET_NO = 999
REV_AT_EPOCH   = 76527
BSTAR          = .18133216E-3
MEAN_MOTION_DOT = .2063E-4
MEAN_MOTION_DDOT = 0

CCSDS_OMM_VERS = 2.0
CREATION_DATE  = 
ORIGINATOR     = 

OBJECT_NAME    = SL-16 R/B
OBJECT_ID      = 1993-059B
CENTER_NAME    = EARTH
REF_FRAME      = TEME
TIME_SYSTEM    = UTC
MEAN_ELEMENT_THEORY = SGP/SGP4

EPOCH          = 2025-11-28T09:41:41.758656
MEAN_MOTION    = 14.17207904
ECCENTRICITY   = .00170945
INCLINATION    = 70.9895
RA_OF_ASC_NODE = 224.7152
ARG_OF_PERICENTER = 356.8780
MEAN_ANOMALY   = 3.2234

EPHEMERIS_TYPE = 0
CLASSIFICATION_TYPE = U
NORAD_CAT_ID   = 22803
ELEMENT_SET_NO = 999
REV_AT_EPOCH   = 66518
BSTAR          = .17559807E-4
MEAN_MOTION_DOT = -.13E-6
MEAN_MOTION_DDOT = 0

CCSDS_OMM_VERS = 2.0
CREATION_DATE  = 
ORIGINATOR     = 

OBJECT_NAME    = ARIANE 40 R/B
OBJECT_ID      = 1993-061H
CENTER_NAME    = EARTH
REF_FRAME      = TEME
TIME_SYSTEM    = UTC
MEAN_ELEMENT_THEORY = SGP/SGP4

EPOCH          = 2025-11-28T10:36:28.553760
MEAN_MOTION    = 14.32786869
ECCENTRICITY   = .00100785
INCLINATION    = 98.5094
RA_OF_ASC_NODE = 38.2310
ARG_OF_PERICENTER = 219.0982
MEAN_ANOMALY   = 140.9475

EPHEMERIS_TYPE = 0
CLASSIFICATION_TYPE = U
NORAD_CAT_ID   = 22830
ELEMENT_SET_NO = 999
REV_AT_EPOCH   = 67960
BSTAR          = .11199889E-3
MEAN_MOTION_DOT = .262E-5
MEAN_MOTION_DDOT = 0

CCSDS_OMM_VERS = 2.0
CREATION_DATE  = 
ORIGINATOR     = 

OBJECT_NAME    = COSMOS 2278
OBJECT_ID      = 1994-023A
CENTER_NAME    = EARTH
REF_FRAME      = TEME
TIME_SYSTEM    = UTC
MEAN_ELEMENT_THEORY = SGP/SGP4

EPOCH          = 2025-11-28T14:28:24.662208
MEAN_MOTION    = 14.14350057
ECCENTRICITY   = .00091597
INCLINATION    = 71.0557
RA_OF_ASC_NODE = 26.5866
ARG_OF_PERICENTER = 199.5021
MEAN_ANOMALY   = 160.5753

EPHEMERIS_TYPE = 0
CLASSIFICATION_TYPE = U
NORAD_CAT_ID   = 23087
ELEMENT_SET_NO = 999
REV_AT_EPOCH   = 63051
BSTAR          = .6219777E-4
MEAN_MOTION_DOT = .72E-6
MEAN_MOTION_DDOT = 0

CCSDS_OMM_VERS = 2.0
CREATION_DATE  = 
ORIGINATOR     = 

OBJECT_NAME    = SL-16 R/B
OBJECT_ID      = 1994-023B
CENTER_NAME    = EARTH
REF_FRAME      = TEME
TIME_SYSTEM    = UTC
MEAN_ELEMENT_THEORY = SGP/SGP4

EPOCH          = 2025-11-28T15:00:00.936576
MEAN_MOTION    = 14.14993989
ECCENTRICITY   = .00010894
INCLINATION    = 70.9996
RA_OF_ASC_NODE = 283.1265
ARG_OF_PERICENTER = 98.3942
MEAN_ANOMALY   = 261.7304

EPHEMERIS_TYPE = 0
CLASSIFICATION_TYPE = U
NORAD_CAT_ID   = 23088
ELEMENT_SET_NO = 999
REV_AT_EPOCH   = 63179
BSTAR          = .18160372E-3
MEAN_MOTION_DOT = .304E-5
MEAN_MOTION_DDOT = 0

CCSDS_OMM_VERS = 2.0
CREATION_DATE  = 
ORIGINATOR     = 

OBJECT_NAME    = SL-16 R/B
OBJECT_ID      = 1994-074B
CENTER_NAME    = EARTH
REF_FRAME      = TEME
TIME_SYSTEM    = UTC
MEAN_ELEMENT_THEORY = SGP/SGP4

EPOCH          = 2025-11-28T14:45:49.666752
MEAN_MOTION    = 14.79264342
ECCENTRICITY   = .00065059
INCLINATION    = 97.7219
RA_OF_ASC_NODE = 2.4803
ARG_OF_PERICENTER = 177.9420
MEAN_ANOMALY   = 295.5171

EPHEMERIS_TYPE = 0
CLASSIFICATION_TYPE = U
NORAD_CAT_ID   = 23343
ELEMENT_SET_NO = 999
REV_AT_EPOCH   = 67230
BSTAR          = .77679429E-4
MEAN_MOTION_DOT = .528E-5
MEAN_MOTION_DDOT = 0

CCSDS_OMM_VERS = 2.0
CREATION_DATE  = 
ORIGINATOR     = 

OBJECT_NAME    = SL-16 R/B
OBJECT_ID      = 1994-077B
CENTER_NAME    = EARTH
REF_FRAME      = TEME
TIME_SYSTEM    = UTC
MEAN_ELEMENT_THEORY = SGP/SGP4

EPOCH          = 2025-11-28T15:30:14.010336
MEAN_MOTION    = 14.15546312
ECCENTRICITY   = .00045554
INCLINATION    = 70.9815
RA_OF_ASC_NODE = 205.0627
ARG_OF_PERICENTER = 295.3761
MEAN_ANOMALY   = 64.6890

EPHEMERIS_TYPE = 0
CLASSIFICATION_TYPE = U
NORAD_CAT_ID   = 23405
ELEMENT_SET_NO = 999
REV_AT_EPOCH   = 60193
BSTAR          = -.10023039E-3
MEAN_MOTION_DOT = -.244E-5
MEAN_MOTION_DDOT = 0

CCSDS_OMM_VERS = 2.0
CREATION_DATE  = 
ORIGINATOR     = 

OBJECT_NAME    = ARIANE 40+ R/B
OBJECT_ID      = 1995-021B
CENTER_NAME    = EARTH
REF_FRAME      = TEME
TIME_SYSTEM    = UTC
MEAN_ELEMENT_THEORY = SGP/SGP4

EPOCH          = 2025-11-28T15:22:03.623808
MEAN_MOTION    = 14.39678464
ECCENTRICITY   = .00078908
INCLINATION    = 98.4669
RA_OF_ASC_NODE = 40.3984
ARG_OF_PERICENTER = 86.9062
MEAN_ANOMALY   = 37.3126

EPHEMERIS_TYPE = 0
CLASSIFICATION_TYPE = U
NORAD_CAT_ID   = 23561
ELEMENT_SET_NO = 999
REV_AT_EPOCH   = 60470
BSTAR          = .12432328E-3
MEAN_MOTION_DOT = .345E-5
MEAN_MOTION_DDOT = 0

CCSDS_OMM_VERS = 2.0
CREATION_DATE  = 
ORIGINATOR     = 

OBJECT_NAME    = SL-16 R/B
OBJECT_ID      = 1995-058B
CENTER_NAME    = EARTH
REF_FRAME      = TEME
TIME_SYSTEM    = UTC
MEAN_ELEMENT_THEORY = SGP/SGP4

EPOCH          = 2025-11-28T13:51:21.283488
MEAN_MOTION    = 14.15475305
ECCENTRICITY   = .00149115
INCLINATION    = 71.0224
RA_OF_ASC_NODE = 32.5389
ARG_OF_PERICENTER = 273.1063
MEAN_ANOMALY   = 86.8354

EPHEMERIS_TYPE = 0
CLASSIFICATION_TYPE = U
NORAD_CAT_ID   = 23705
ELEMENT_SET_NO = 999
REV_AT_EPOCH   = 55354
BSTAR          = .96420306E-4
MEAN_MOTION_DOT = .141E-5
MEAN_MOTION_DDOT = 0

CCSDS_OMM_VERS = 2.0
CREATION_DATE  = 
ORIGINATOR     = 

OBJECT_NAME    = SL-16 R/B
OBJECT_ID      = 1996-051B
CENTER_NAME    = EARTH
REF_FRAME      = TEME
TIME_SYSTEM    = UTC
MEAN_ELEMENT_THEORY = SGP/SGP4

EPOCH          = 2025-11-28T14:34:45.376896
MEAN_MOTION    = 14.12394348
ECCENTRICITY   = .00189746
INCLINATION    = 70.7607
RA_OF_ASC_NODE = 29.1977
ARG_OF_PERICENTER = 278.8770
MEAN_ANOMALY   = 81.0201

EPHEMERIS_TYPE = 0
CLASSIFICATION_TYPE = U
NORAD_CAT_ID   = 24298
ELEMENT_SET_NO = 999
REV_AT_EPOCH   = 50737
BSTAR          = .9953705E-5
MEAN_MOTION_DOT = -.31E-6
MEAN_MOTION_DDOT = 0

